OBJECT_NAME,OBJECT_ID,EPOCH,MEAN_MOTION,ECCENTRICITY,INCLINATION,RA_OF_ASC_NODE,ARG_OF_PERICENTER,MEAN_ANOMALY,EPHEMERIS_TYPE,CLASSIFICATION_TYPE,NORAD_CAT_ID,ELEMENT_SET_NO,REV_AT_EPOCH,BSTAR,MEAN_MOTION_DOT,MEAN_MOTION_DDOT
OSCAR 7 (AO-7),1974-089B,2026-07-18T12:34:44.913216,12.53698622,.00126459,101.9906,213.0974,72.2029,82.3408,0,U,7530,999,36444,-.25006265E-4,-.5E-6,0
PHASE 3B (AO-10),1983-058B,2026-07-17T23:01:24.898944,2.05871393,.60006144,25.9392,214.4954,124.1231,307.7423,0,U,14129,999,29612,0,-.201E-5,0
UOSAT 2 (UO-11),1984-021B,2026-07-18T20:01:14.160288,14.90853767,.0009232,97.8079,165.0607,81.3382,278.8882,0,U,14781,999,26184,.66071E-4,.595E-5,0
LUSAT (LO-19),1990-005G,2026-07-18T20:33:53.053920,14.34131325,.0012622,98.8846,222.5341,111.5754,248.6776,0,U,20442,999,90693,.24421E-4,.22E-6,0
EYESAT A (AO-27),1993-061C,2026-07-18T17:53:05.329248,14.30949619,.0008562,98.6865,267.1447,15.9631,344.1820,0,U,22825,999,71151,.25969E-4,.24E-6,0
ITAMSAT (IO-26),1993-061D,2026-07-18T18:50:32.193312,14.31377341,.0008732,98.6814,267.1054,358.7298,1.3861,0,U,22826,999,71183,.28042E-4,.3E-6,0
RADIO ROSTO (RS15),1994-085A,2026-07-18T18:40:17.885856,11.27583537,.0157058,64.8145,252.1261,358.0504,1.9791,0,U,23439,999,29946,.14843E-3,-.37E-6,0
JAS-2 (FO-29),1996-046B,2026-07-18T12:15:27.451296,13.53275823,.03501995,98.5218,44.0889,15.3498,345.7949,0,U,24278,999,47740,.89785E-7,-.35E-6,0
TECHSAT 1B (GO-32),1998-043D,2026-07-17T23:18:35.793504,14.24433657,.00022668,99.0087,192.5089,110.8541,249.2880,0,U,25397,999,45571,.2148049E-4,.3E-7,0
ISS (ZARYA),1998-067A,2026-07-18T20:42:49.520160,15.49045026,.0006808,51.6317,143.3357,311.9482,48.0925,0,U,25544,999,57666,.81939E-4,.4074E-4,0
PCSAT (NO-44),2001-043C,2026-07-18T14:09:03.661344,14.31965710,.0005875,67.0497,163.0499,266.9181,93.1249,0,U,26931,999,29494,.38009E-4,.19E-6,0
SAUDISAT 1C (SO-50),2002-058C,2026-07-18T18:43:46.801920,14.83102312,.0074418,64.5520,31.2314,256.6189,102.6613,0,U,27607,999,26914,.62802E-4,.379E-5,0
CUTE-1 (CO-55),2003-031E,2026-07-18T07:08:10.116384,14.24352673,.00108679,98.6744,207.4657,94.6885,265.5536,0,U,27844,999,19610,.74435316E-4,.128E-5,0
CUBESAT XI-IV (CO-57),2003-031J,2026-07-17T22:48:02.109024,14.23635431,.00106323,98.6776,206.8106,112.1739,248.0569,0,U,27848,999,19575,.66203101E-4,.107E-5,0
MOZHAETS 4 (RS22),2003-042A,2026-07-18T20:46:56.312256,14.73518775,.00115,98.3475,25.1214,161.7179,309.2604,0,U,27939,999,22021,.11119E-3,.669E-5,0
CUBESAT XI-V,2005-043F,2026-07-18T09:14:49.557120,14.72706792,.00153208,98.3020,355.6693,105.9745,254.3151,0,U,28895,999,10634,.10630429E-3,.626E-5,0
CUTE-1.7+APD II (CO-65),2008-021C,2026-07-18T19:12:07.420032,15.09718171,.0006834,97.8299,181.8863,284.4890,75.5579,0,U,32785,999,98996,.12108E-3,.1885E-4,0
SEEDS II (CO-66),2008-021J,2026-07-18T11:04:04.594656,15.33733639,.00034594,97.7530,198.8780,149.6253,210.5190,0,U,32791,999,99208,.29893879E-3,.967E-4,0
YUBILEINY (RS30),2008-025A,2026-07-18T19:21:49.824288,12.43180564,.0018703,82.5070,335.7700,240.5762,119.3452,0,U,32953,999,82362,-.12521E-3,-.8E-7,0
KKS-1 (KISEKI),2009-002H,2026-07-18T19:55:10.095744,14.83193995,.000772,98.1172,122.7735,176.9750,183.1511,0,U,33499,999,94088,.81199E-4,.607E-5,0
SWISSCUBE,2009-051B,2026-07-18T17:00:12.312576,14.62534308,.0007983,98.4003,108.1426,109.6999,250.5063,0,U,35932,999,89376,.93582E-4,.425E-5,0
BEESAT-1,2009-051C,2026-07-18T17:37:32.795040,14.61764858,.0006295,98.3929,107.7381,120.7003,239.4819,0,U,35933,999,89379,.78836E-4,.344E-5,0
ITUPSAT1,2009-051E,2026-07-18T16:25:36.805728,14.60481463,.0008289,98.4014,106.8454,133.4128,226.7763,0,U,35935,999,89333,.75415E-4,.317E-5,0
XIWANG-1 (HOPE-1),2009-072B,2026-07-18T20:37:41.990592,13.16439137,.0007659,100.4043,153.1885,156.7572,203.3888,0,U,36122,999,79717,.34999E-4,-.31E-6,0
O/OREOS (USA 219),2010-062C,2026-07-18T20:54:51.786144,14.93859324,.0014218,71.9700,8.5594,357.9749,2.1362,0,U,37224,999,12137,.9746E-4,.973E-5,0
JUGNU,2011-058B,2026-07-18T20:12:16.311744,14.13784058,.0018634,19.9600,116.1069,66.5524,337.1965,0,U,37839,999,76351,.43971E-4,.351E-5,0
SRMSAT,2011-058D,2026-07-18T11:34:44.308992,14.11581472,.00116646,19.9704,230.0483,187.3521,320.5069,0,U,37841,999,76224,.30967464E-4,.322E-5,0
STRAND-1,2013-009E,2026-07-18T17:36:34.309152,14.37180014,.0009578,98.3938,19.1941,131.5645,228.6365,0,U,39090,999,70159,.48978E-4,.103E-5,0
ZACUBE-1 (TSHEPISOSAT),2013-066B,2026-07-18T19:12:30.303936,15.01337750,.0044062,97.8003,162.2915,143.6350,216.7882,0,U,39417,999,68547,.94782E-4,.1181E-4,0
GOMX-1,2013-066Q,2026-07-18T20:21:07.898976,14.69547400,.0127919,97.6463,38.3123,336.4536,23.0846,0,U,39430,999,67456,.9925E-4,.614E-5,0
